CCSDS_OMM_VERS = 2.0
CREATION_DATE  = 
ORIGINATOR     = 

OBJECT_NAME    = SL-14 R/B
OBJECT_ID      = 1986-046B
CENTER_NAME    = EARTH
REF_FRAME      = TEME
TIME_SYSTEM    = UTC
MEAN_ELEMENT_THEORY = SGP/SGP4

EPOCH          = 2026-02-26T11:47:57.519744
MEAN_MOTION    = 14.85577656
ECCENTRICITY   = .0021548
INCLINATION    = 82.4787
RA_OF_ASC_NODE = 90.7658
ARG_OF_PERICENTER = 264.6822
MEAN_ANOMALY   = 95.1935

EPHEMERIS_TYPE = 0
CLASSIFICATION_TYPE = U
NORAD_CAT_ID   = 16792
ELEMENT_SET_NO = 999
REV_AT_EPOCH   = 12474
BSTAR          = .47628E-4
MEAN_MOTION_DOT = .437E-5
MEAN_MOTION_DDOT = 0

CCSDS_OMM_VERS = 2.0
CREATION_DATE  = 
ORIGINATOR     = 

OBJECT_NAME    = SL-14 R/B
OBJECT_ID      = 1986-055B
CENTER_NAME    = EARTH
REF_FRAME      = TEME
TIME_SYSTEM    = UTC
MEAN_ELEMENT_THEORY = SGP/SGP4

EPOCH          = 2026-02-26T11:28:29.186112
MEAN_MOTION    = 14.85630377
ECCENTRICITY   = .0019166
INCLINATION    = 82.5223
RA_OF_ASC_NODE = 137.2107
ARG_OF_PERICENTER = 14.0303
MEAN_ANOMALY   = 356.5092

EPHEMERIS_TYPE = 0
CLASSIFICATION_TYPE = U
NORAD_CAT_ID   = 16882
ELEMENT_SET_NO = 999
REV_AT_EPOCH   = 11770
BSTAR          = .48753E-4
MEAN_MOTION_DOT = .448E-5
MEAN_MOTION_DDOT = 0

CCSDS_OMM_VERS = 2.0
CREATION_DATE  = 
ORIGINATOR     = 

OBJECT_NAME    = COSMOS 1812
OBJECT_ID      = 1987-003A
CENTER_NAME    = EARTH
REF_FRAME      = TEME
TIME_SYSTEM    = UTC
MEAN_ELEMENT_THEORY = SGP/SGP4

EPOCH          = 2026-02-26T20:29:22.613280
MEAN_MOTION    = 16.12024713
ECCENTRICITY   = .0005422
INCLINATION    = 82.4743
RA_OF_ASC_NODE = 208.0428
ARG_OF_PERICENTER = 287.4471
MEAN_ANOMALY   = 72.6221

EPHEMERIS_TYPE = 0
CLASSIFICATION_TYPE = U
NORAD_CAT_ID   = 17295
ELEMENT_SET_NO = 999
REV_AT_EPOCH   = 14273
BSTAR          = .79529E-3
MEAN_MOTION_DOT = .839537E-2
MEAN_MOTION_DDOT = .41094E-3

CCSDS_OMM_VERS = 2.0
CREATION_DATE  = 
ORIGINATOR     = 

OBJECT_NAME    = SL-14 R/B
OBJECT_ID      = 1987-024B
CENTER_NAME    = EARTH
REF_FRAME      = TEME
TIME_SYSTEM    = UTC
MEAN_ELEMENT_THEORY = SGP/SGP4

EPOCH          = 2026-02-26T12:41:56.647968
MEAN_MOTION    = 14.86119979
ECCENTRICITY   = .0016828
INCLINATION    = 82.5261
RA_OF_ASC_NODE = 103.2557
ARG_OF_PERICENTER = 300.2171
MEAN_ANOMALY   = 59.7379

EPHEMERIS_TYPE = 0
CLASSIFICATION_TYPE = U
NORAD_CAT_ID   = 17567
ELEMENT_SET_NO = 999
REV_AT_EPOCH   = 8647
BSTAR          = .46097E-4
MEAN_MOTION_DOT = .429E-5
MEAN_MOTION_DDOT = 0

CCSDS_OMM_VERS = 2.0
CREATION_DATE  = 
ORIGINATOR     = 

OBJECT_NAME    = COSMOS 1833
OBJECT_ID      = 1987-027A
CENTER_NAME    = EARTH
REF_FRAME      = TEME
TIME_SYSTEM    = UTC
MEAN_ELEMENT_THEORY = SGP/SGP4

EPOCH          = 2026-02-26T17:54:41.469984
MEAN_MOTION    = 14.13056786
ECCENTRICITY   = .0024705
INCLINATION    = 70.9234
RA_OF_ASC_NODE = 349.0167
ARG_OF_PERICENTER = 229.5522
MEAN_ANOMALY   = 130.3445

EPHEMERIS_TYPE = 0
CLASSIFICATION_TYPE = U
NORAD_CAT_ID   = 17589
ELEMENT_SET_NO = 999
REV_AT_EPOCH   = 877
BSTAR          = -.35471E-4
MEAN_MOTION_DOT = -.115E-5
MEAN_MOTION_DDOT = 0

CCSDS_OMM_VERS = 2.0
CREATION_DATE  = 
ORIGINATOR     = 

OBJECT_NAME    = SL-16 R/B
OBJECT_ID      = 1987-027B
CENTER_NAME    = EARTH
REF_FRAME      = TEME
TIME_SYSTEM    = UTC
MEAN_ELEMENT_THEORY = SGP/SGP4

EPOCH          = 2026-02-26T16:20:47.772672
MEAN_MOTION    = 14.17167244
ECCENTRICITY   = .0003985
INCLINATION    = 71.0029
RA_OF_ASC_NODE = 299.6942
ARG_OF_PERICENTER = 164.3560
MEAN_ANOMALY   = 195.7688

EPHEMERIS_TYPE = 0
CLASSIFICATION_TYPE = U
NORAD_CAT_ID   = 17590
ELEMENT_SET_NO = 999
REV_AT_EPOCH   = 1378
BSTAR          = -.40457E-5
MEAN_MOTION_DOT = -.56E-6
MEAN_MOTION_DDOT = 0

CCSDS_OMM_VERS = 2.0
CREATION_DATE  = 
ORIGINATOR     = 

OBJECT_NAME    = SL-14 R/B
OBJECT_ID      = 1987-038B
CENTER_NAME    = EARTH
REF_FRAME      = TEME
TIME_SYSTEM    = UTC
MEAN_ELEMENT_THEORY = SGP/SGP4

EPOCH          = 2026-02-26T15:40:26.475744
MEAN_MOTION    = 14.85357789
ECCENTRICITY   = .0018701
INCLINATION    = 82.5022
RA_OF_ASC_NODE = 307.2043
ARG_OF_PERICENTER = 196.7356
MEAN_ANOMALY   = 163.3245

EPHEMERIS_TYPE = 0
CLASSIFICATION_TYPE = U
NORAD_CAT_ID   = 17912
ELEMENT_SET_NO = 999
REV_AT_EPOCH   = 7759
BSTAR          = .46795E-4
MEAN_MOTION_DOT = .428E-5
MEAN_MOTION_DDOT = 0

CCSDS_OMM_VERS = 2.0
CREATION_DATE  = 
ORIGINATOR     = 

OBJECT_NAME    = SL-14 R/B
OBJECT_ID      = 1987-055B
CENTER_NAME    = EARTH
REF_FRAME      = TEME
TIME_SYSTEM    = UTC
MEAN_ELEMENT_THEORY = SGP/SGP4

EPOCH          = 2026-02-26T07:05:05.720640
MEAN_MOTION    = 14.85612896
ECCENTRICITY   = .0021988
INCLINATION    = 82.5022
RA_OF_ASC_NODE = 359.7671
ARG_OF_PERICENTER = 53.8707
MEAN_ANOMALY   = 306.4540

EPHEMERIS_TYPE = 0
CLASSIFICATION_TYPE = U
NORAD_CAT_ID   = 18153
ELEMENT_SET_NO = 999
REV_AT_EPOCH   = 6824
BSTAR          = .626E-4
MEAN_MOTION_DOT = .568E-5
MEAN_MOTION_DDOT = 0

CCSDS_OMM_VERS = 2.0
CREATION_DATE  = 
ORIGINATOR     = 

OBJECT_NAME    = COSMOS 1867
OBJECT_ID      = 1987-060A
CENTER_NAME    = EARTH
REF_FRAME      = TEME
TIME_SYSTEM    = UTC
MEAN_ELEMENT_THEORY = SGP/SGP4

EPOCH          = 2026-02-26T11:21:07.134336
MEAN_MOTION    = 14.31501016
ECCENTRICITY   = .0014312
INCLINATION    = 65.0125
RA_OF_ASC_NODE = 338.1164
ARG_OF_PERICENTER = 277.9200
MEAN_ANOMALY   = 82.0260

EPHEMERIS_TYPE = 0
CLASSIFICATION_TYPE = U
NORAD_CAT_ID   = 18187
ELEMENT_SET_NO = 999
REV_AT_EPOCH   = 1833
BSTAR          = .2946E-4
MEAN_MOTION_DOT = -.22E-6
MEAN_MOTION_DDOT = 0

CCSDS_OMM_VERS = 2.0
CREATION_DATE  = 
ORIGINATOR     = 

OBJECT_NAME    = SL-14 R/B
OBJECT_ID      = 1988-001B
CENTER_NAME    = EARTH
REF_FRAME      = TEME
TIME_SYSTEM    = UTC
MEAN_ELEMENT_THEORY = SGP/SGP4

EPOCH          = 2026-02-26T11:48:09.282240
MEAN_MOTION    = 14.85511371
ECCENTRICITY   = .0016595
INCLINATION    = 82.5133
RA_OF_ASC_NODE = 205.8905
ARG_OF_PERICENTER = 275.9511
MEAN_ANOMALY   = 83.9813

EPHEMERIS_TYPE = 0
CLASSIFICATION_TYPE = U
NORAD_CAT_ID   = 18749
ELEMENT_SET_NO = 999
REV_AT_EPOCH   = 4036
BSTAR          = .6211E-4
MEAN_MOTION_DOT = .561E-5
MEAN_MOTION_DDOT = 0

